KUIPER-00089            
1 64834U 25151U   25317.03473756  .00008773  00000+0  11835-2 0  9996
2 64834  51.9016  81.2640 0001432 263.8500  96.2299 14.79748097 18242
KUIPER-00090            
1 64835U 25151V   25317.16671295  .00044290  00000+0  32321-2 0  9996
2 64835  51.8941  73.7645 0004312 291.9832 156.8237 15.03252893  5591
KUIPER-00091            
1 64836U 25151W   25317.16671295  .00065549  00000+0  87757-2 0  9990
2 64836  51.9000  78.3455 0006636 262.0732 346.0695 14.78791289  4945
KUIPER-00092            
1 64837U 25151X   25317.17499574 -.00154355  00000+0 -21281-1 0  9995
2 64837  51.9003  85.7564 0006367 211.0796 148.9790 14.78719683 19407
KUIPER-00093            
1 64838U 25151Y   25316.36740663  .00013101  00000+0  17395-2 0  9997
2 64838  51.8983  91.8747 0013804 218.2770 141.7214 14.79988191 18033
KUIPER-00094            
1 64839U 25151Z   25316.62900293  .00020686  00000+0  14966-2 0  9991
2 64839  51.8899  80.6744 0005370 241.3265 118.7168 15.03965562 18215
KUIPER-00081            
1 65132U 25171A   25317.16671295 -.00777151  00000+0 -25351-1 0  9994
2 65132  51.8753 312.2343 0005371  86.9489 332.2809 15.33584504  5039
KUIPER-00088            
1 65133U 25171B   25317.16671295 -.00025182  00000+0 -29684-2 0  9999
2 65133  51.8991 320.8772 0008496  92.3790   0.9992 14.84123542  1306
